ONEWEB-0683             
1 56719U 23068K   25220.53583502 -.00000051  00000+0 -16907-3 0  9992
2 56719  87.9086 321.5377 0001740 106.2461 253.8861 13.15546746108316
ONEWEB-0684             
1 56720U 23068L   25220.23952669 -.00000034  00000+0 -12351-3 0  9995
2 56720  87.9062 321.6024 0002187  58.8538 301.2807 13.15546562108106
ONEWEB-0686             
1 56721U 23068M   25220.59216112 -.00000027  00000+0 -10399-3 0  9993
2 56721  87.9032 291.1140 0001684  96.7142 263.4181 13.16596496110588
ONEWEB-0694             
1 56722U 23068N   25220.55894215  .00000018  00000+0  13319-4 0  9990
2 56722  87.9045 291.0446 0001753 109.3628 250.7693 13.16593162110638
ONEWEB-0696             
1 56723U 23068P   25220.57703764  .00000158  00000+0  38690-3 0  9994
2 56723  87.9088 321.5826 0002048  91.0546 269.0819 13.15547802108269
ONEWEB-0703             
1 56724U 23068Q   25220.51048275  .00001211  00000+0  31815-2 0  9990
2 56724  87.9071 321.5843 0003030  86.6479 273.4998 13.15559601108142
ONEWEB-0721             
1 56725U 23068R   25220.36180339  .00000020  00000+0  12682-4 0  9992
2 56725  86.6843 185.2157 0002034  82.4772 277.6592 13.22442235116598
ONEWEB-0015             
1 61594U 24188A   25220.56899118 -.00000540  00000+0 -15583-2 0  9990
2 61594  87.8804  83.4065 0002012 100.2597 259.8757 13.11415433 43485
